
# Worst residual: 5.17 km
# MJD 59870.000000 (2022 Oct 18  0:00)
ZTF0EWD = C1A3AQ1 = 67040 obj
1 89972U 00000ABB 22291.49919926  .00000000  00000-0  00000-0 0 17089
2 89972 018.5512 288.4285 8458065 235.6640 104.7162 00.51052948    03

# Worst residual: 7.45 km
# MJD 59871.000000 (2022 Oct 19  0:00)
ZTF0EWD = C1A3AQ1 = 67040 obj
1 89972U 00000ABB 22292.49919926  .00000000  00000-0  00000-0 0 17080
2 89972 018.5500 288.4110 8456880 235.7034 288.4943 00.51046912    09

# Worst residual: 8.25 km
# MJD 59872.000000 (2022 Oct 20  0:00)
ZTF0EWD = C1A3AQ1 = 67040 obj
1 89972U 00000ABB 22293.49919926  .00000000  00000-0  00000-0 0 17081
2 89972 018.5262 288.2566 8456570 235.8922 112.2515 00.51049943    06

# Worst residual: 7.23 km
# MJD 59873.000000 (2022 Oct 21  0:00)
ZTF0EWD = C1A3AQ1 = 67040 obj
1 89972U 00000ABB 22294.49919926  .00000000  00000-0  00000-0 0 17082
2 89972 018.5291 288.2581 8455506 235.9091 296.0491 00.51043873    01

# Worst residual: 11.22 km
# MJD 59874.000000 (2022 Oct 22  0:00)
ZTF0EWD = C1A3AQ1 = 67040 obj
1 89972U 00000ABB 22295.49919926  .00000000  00000-0  00000-0 0 17083
2 89972 018.5068 288.1107 8455097 236.0923 119.8040 00.51046945    02

# Worst residual: 7.72 km
# MJD 59875.000000 (2022 Oct 23  0:00)
ZTF0EWD = C1A3AQ1 = 67040 obj
1 89972U 00000ABB 22296.49919926  .00000000  00000-0  00000-0 0 17084
2 89972 018.5065 288.0941 8454916 236.1275 303.5982 00.51047191    05

# Worst residual: 9.26 km
# MJD 59876.000000 (2022 Oct 24  0:00)
ZTF0EWD = C1A3AQ1 = 67040 obj
1 89972U 00000ABB 22297.49919926  .00000000  00000-0  00000-0 0 17085
2 89972 018.4839 287.9516 8454346 236.3057 127.3575 00.51046563    08

# Worst residual: 8.29 km
# MJD 59877.000000 (2022 Oct 25  0:00)
ZTF0EWD = C1A3AQ1 = 67040 obj
1 89972U 00000ABB 22298.49919926  .00000000  00000-0  00000-0 0 17086
2 89972 018.4766 287.8987 8454115 236.3808 311.1181 00.51054538    03

# Worst residual: 6.58 km
# MJD 59878.000000 (2022 Oct 26  0:00)
ZTF0EWD = C1A3AQ1 = 67040 obj
1 89972U 00000ABB 22299.49919926  .00000000  00000-0  00000-0 0 17087
2 89972 018.4540 287.7613 8454058 236.5512 134.8956 00.51053320    06

# Worst residual: 9.02 km
# MJD 59879.000000 (2022 Oct 27  0:00)
ZTF0EWD = C1A3AQ1 = 67040 obj
1 89972U 00000ABB 22300.49919926  .00000000  00000-0  00000-0 0 17080
2 89972 018.4410 287.6806 8452230 236.6580 318.6203 00.51062262    03

# Worst residual: 3.69 km
# MJD 59880.000000 (2022 Oct 28  0:00)
ZTF0EWD = C1A3AQ1 = 67040 obj
1 89972U 00000ABB 22301.49919926  .00000000  00000-0  00000-0 0 17081
2 89972 018.4174 287.5433 8452875 236.8222 142.4096 00.51062101    00

# Worst residual: 8.74 km
# MJD 59881.000000 (2022 Oct 29  0:00)
ZTF0EWD = C1A3AQ1 = 67040 obj
1 89972U 00000ABB 22302.49919926  .00000000  00000-0  00000-0 0 17082
2 89972 018.4055 287.4671 8449291 236.9235 326.1442 00.51066172    02

# Worst residual: 4.06 km
# MJD 59882.000000 (2022 Oct 30  0:00)
ZTF0EWD = C1A3AQ1 = 67040 obj
1 89972U 00000ABB 22303.49919926  .00000000  00000-0  00000-0 0 17083
2 89972 018.3778 287.3306 8451050 237.0779 149.9309 00.51065452    01

# Worst residual: 8.76 km
# MJD 59883.000000 (2022 Oct 31  0:00)
ZTF0EWD = C1A3AQ1 = 67040 obj
1 89972U 00000ABB 22304.49919926  .00000000  00000-0  00000-0 0 17084
2 89972 018.3671 287.2589 8448242 237.1704 333.7181 00.51061817    05

# Worst residual: 5.45 km
# MJD 59884.000000 (2022 Nov  1  0:00)
ZTF0EWD = C1A3AQ1 = 67040 obj
1 89972U 00000ABB 22305.49919926  .00000000  00000-0  00000-0 0 17085
2 89972 018.3267 287.0889 8450331 237.3593 157.4711 00.51056393    00

# Worst residual: 9.12 km
# MJD 59885.000000 (2022 Nov  2  0:00)
ZTF0EWD = C1A3AQ1 = 67040 obj
1 89972U 00000ABB 22306.49919926  .00000000  00000-0  00000-0 0 17086
2 89972 018.3037 286.9240 8450361 237.5483 341.2618 00.51058128    04

# Worst residual: 4.61 km
# MJD 59886.000000 (2022 Nov  3  0:00)
ZTF0EWD = C1A3AQ1 = 67040 obj
1 89972U 00000ABB 22307.49919926  .00000000  00000-0  00000-0 0 17087
2 89972 018.2576 286.7333 8450650 237.7711 164.9962 00.51044775    04

# Worst residual: 13.27 km
# MJD 59887.000000 (2022 Nov  4  0:00)
ZTF0EWD = C1A3AQ1 = 67040 obj
1 89972U 00000ABB 22308.49919926  .00000000  00000-0  00000-0 0 17088
2 89972 018.2228 286.4731 8450228 238.0608 348.7078 00.51056478    00

# Worst residual: 3.75 km
# MJD 59888.000000 (2022 Nov  5  0:00)
ZTF0EWD = C1A3AQ1 = 67040 obj
1 89972U 00000ABB 22309.49919926  .00000000  00000-0  00000-0 0 17089
2 89972 018.1914 286.3164 8448907 238.2547 172.4868 00.51049385    03

# Worst residual: 13.04 km
# MJD 59889.000000 (2022 Nov  6  0:00)
ZTF0EWD = C1A3AQ1 = 67040 obj
1 89972U 00000ABB 22310.49919926  .00000000  00000-0  00000-0 0 17081
2 89972 018.1651 286.1075 8445358 238.4854 356.1803 00.51056950    06

# Worst residual: 3.05 km
# MJD 59890.000000 (2022 Nov  7  0:00)
ZTF0EWD = C1A3AQ1 = 67040 obj
1 89972U 00000ABB 22311.49919926  .00000000  00000-0  00000-0 0 17082
2 89972 018.1461 285.9924 8445158 238.6260 179.9998 00.51061445    07

# Worst residual: 8.70 km
# MJD 59891.000000 (2022 Nov  8  0:00)
ZTF0EWD = C1A3AQ1 = 67040 obj
1 89972U 00000ABB 22312.49919926  .00000000  00000-0  00000-0 0 17083
2 89972 018.1307 285.8778 8440972 238.7567 003.7483 00.51066885    08

# Worst residual: 3.27 km
# MJD 59892.000000 (2022 Nov  9  0:00)
ZTF0EWD = C1A3AQ1 = 67040 obj
1 89972U 00000ABB 22313.49919926  .00000000  00000-0  00000-0 0 17084
2 89972 018.1110 285.7595 8443000 238.8916 187.5570 00.51066215    05

# Worst residual: 7.09 km
# MJD 59893.000000 (2022 Nov 10  0:00)
ZTF0EWD = C1A3AQ1 = 67040 obj
1 89972U 00000ABB 22314.49919926  .00000000  00000-0  00000-0 0 17085
2 89972 018.0972 285.6604 8439874 239.0092 011.3417 00.51076755    06

# Worst residual: 2.94 km
# MJD 59894.000000 (2022 Nov 11  0:00)
ZTF0EWD = C1A3AQ1 = 67040 obj
1 89972U 00000ABB 22315.49919926  .00000000  00000-0  00000-0 0 17086
2 89972 018.0756 285.5386 8442635 239.1511 195.1146 00.51064552    00

# Worst residual: 6.11 km
# MJD 59895.000000 (2022 Nov 12  0:00)
ZTF0EWD = C1A3AQ1 = 67040 obj
1 89972U 00000ABB 22316.49919926  .00000000  00000-0  00000-0 0 17087
2 89972 018.0617 285.4310 8440193 239.2823 018.9027 00.51077280    08

# Worst residual: 2.74 km
# MJD 59896.000000 (2022 Nov 13  0:00)
ZTF0EWD = C1A3AQ1 = 67040 obj
1 89972U 00000ABB 22317.49919926  .00000000  00000-0  00000-0 0 17088
2 89972 018.0435 285.3232 8442197 239.4157 202.6562 00.51060984    05

# Worst residual: 8.00 km
# MJD 59897.000000 (2022 Nov 14  0:00)
ZTF0EWD = C1A3AQ1 = 67040 obj
1 89972U 00000ABB 22318.49919926  .00000000  00000-0  00000-0 0 17089
2 89972 018.0311 285.2209 8439985 239.5440 026.4387 00.51068779    05

# Worst residual: 3.88 km
# MJD 59898.000000 (2022 Nov 15  0:00)
ZTF0EWD = C1A3AQ1 = 67040 obj
1 89972U 00000ABB 22319.49919926  .00000000  00000-0  00000-0 0 17080
2 89972 018.0195 285.1420 8441016 239.6503 210.1983 00.51058503    06
